start=new Date('2022-08-28T00:00:00.000Z').valueOf();
sats=[{"RA_OF_ASC_NODE":"313.5831","ECCENTRICITY":"0.00013830","MEAN_MOTION":"15.06396320","OBJECT_TYPE":"PAYLOAD","RCS_SIZE":"LARGE","CLASSIFICATION_TYPE":"U","GP_ID":"211102781","DECAY_DATE":null,"APOAPSIS":"548.183","MEAN_MOTION_DOT":"-0.00001679","ELEMENT_SET_NO":"999","LAUNCH_DATE":"2020-11-25","FILE":"3548622","REV_AT_EPOCH":"9795","EPHEMERIS_TYPE":"0","NORAD_CAT_ID":"47128","SITE":"AFETR","SEMIMAJOR_AXIS":"6925.360","TIME_SYSTEM":"UTC","MEAN_ELEMENT_THEORY":"SGP4","EPOCH":"2022-08-27T11:35:23.080992","TLE_LINE2":"2 47128  53.0553 313.5831 0001383  76.1501 283.9642 15.06396320 97953","BSTAR":"-0.00009388100000","TLE_LINE1":"1 47128U 20088G   22239.48290603 -.00001679  00000-0 -93881-4 0  9998","OBJECT_NAME":"STARLINK-1837","CENTER_NAME":"EARTH","REF_FRAME":"TEME","INCLINATION":"53.0553","PERIAPSIS":"546.267","MEAN_ANOMALY":"283.9642","PERIOD":"95.592","OBJECT_ID":"2020-088G","ARG_OF_PERICENTER":"76.1501","COUNTRY_CODE":"US","MEAN_MOTION_DDOT":"0.0000000000000"},{"TLE_LINE2":"2 47129  53.0572 322.8642 0001651  64.4381 295.6778 15.06404933 97547","EPOCH":"2022-08-27T15:27:35.929440","TIME_SYSTEM":"UTC","SITE":"AFETR","SEMIMAJOR_AXIS":"6925.333","MEAN_ELEMENT_THEORY":"SGP4","LAUNCH_DATE":"2020-11-25","ELEMENT_SET_NO":"999","NORAD_CAT_ID":"47129","FILE":"3548882","REV_AT_EPOCH":"9754","EPHEMERIS_TYPE":"0","DECAY_DATE":null,"APOAPSIS":"548.342","MEAN_MOTION_DOT":"0.00001936","RCS_SIZE":"LARGE","OBJECT_TYPE":"PAYLOAD","GP_ID":"211135508","CLASSIFICATION_TYPE":"U","MEAN_MOTION":"15.06404933","RA_OF_ASC_NODE":"322.8642","ECCENTRICITY":"0.00016510","PERIOD":"95.592","OBJECT_ID":"2020-088H","ARG_OF_PERICENTER":"64.4381","MEAN_MOTION_DDOT":"0.0000000000000","COUNTRY_CODE":"US","PERIAPSIS":"546.055","MEAN_ANOMALY":"295.6778","REF_FRAME":"TEME","INCLINATION":"53.0572","CENTER_NAME":"EARTH","OBJECT_NAME":"STARLINK-1838","TLE_LINE1":"1 47129U 20088H   22239.64416585  .00001936  00000-0  14884-3 0  9995","BSTAR":"0.00014884000000"},{"TLE_LINE2":"2 47130  53.0562 343.5224 0001453  67.4836 292.6306 15.06406894 97533","EPOCH":"2022-08-27T11:52:37.366752","NORAD_CAT_ID":"47130","FILE":"3548622","EPHEMERIS_TYPE":"0","REV_AT_EPOCH":"9753","LAUNCH_DATE":"2020-11-25","ELEMENT_SET_NO":"999","MEAN_ELEMENT_THEORY":"SGP4","SEMIMAJOR_AXIS":"6925.327","SITE":"AFETR","TIME_SYSTEM":"UTC","GP_ID":"211103781","CLASSIFICATION_TYPE":"U","OBJECT_TYPE":"PAYLOAD","RCS_SIZE":"LARGE","APOAPSIS":"548.199","MEAN_MOTION_DOT":"0.00001687","DECAY_DATE":null,"ECCENTRICITY":"0.00014530","RA_OF_ASC_NODE":"343.5224","MEAN_MOTION":"15.06406894","MEAN_MOTION_DDOT":"0.0000000000000","COUNTRY_CODE":"US","PERIOD":"95.592","OBJECT_ID":"2020-088J","ARG_OF_PERICENTER":"67.4836","INCLINATION":"53.0562","REF_FRAME":"TEME","MEAN_ANOMALY":"292.6306","PERIAPSIS":"546.186","CENTER_NAME":"EARTH","BSTAR":"0.00013210000000","OBJECT_NAME":"STARLINK-1839","TLE_LINE1":"1 47130U 20088J   22239.49487693  .00001687  00000-0  13210-3 0  9993"},{"MEAN_MOTION":"15.06404501","RA_OF_ASC_NODE":"323.7923","ECCENTRICITY":"0.00011170","DECAY_DATE":null,"APOAPSIS":"547.973","MEAN_MOTION_DOT":"0.00001869","RCS_SIZE":"LARGE","OBJECT_TYPE":"PAYLOAD","GP_ID":"211108201","CLASSIFICATION_TYPE":"U","SITE":"AFETR","SEMIMAJOR_AXIS":"6925.335","TIME_SYSTEM":"UTC","MEAN_ELEMENT_THEORY":"SGP4","ELEMENT_SET_NO":"999","LAUNCH_DATE":"2020-11-25","EPHEMERIS_TYPE":"0","FILE":"3548643","REV_AT_EPOCH":"9781","NORAD_CAT_ID":"47133","EPOCH":"2022-08-27T10:30:21.382272","TLE_LINE2":"2 47133  53.0573 323.7923 0001117  99.8125 260.2990 15.06404501 97815","TLE_LINE1":"1 47133U 20088M   22239.43774748  .00001869  00000-0  14432-3 0  9999","OBJECT_NAME":"STARLINK-1843","BSTAR":"0.00014432000000","CENTER_NAME":"EARTH","MEAN_ANOMALY":"260.2990","PERIAPSIS":"546.426","REF_FRAME":"TEME","INCLINATION":"53.0573","OBJECT_ID":"2020-088M","PERIOD":"95.592","ARG_OF_PERICENTER":"99.8125","MEAN_MOTION_DDOT":"0.0000000000000","COUNTRY_CODE":"US"},{"TLE_LINE2":"2 47134  53.0561 332.7177 0001234  96.1157 263.9972 15.06392198 97402","EPOCH":"2022-08-27T16:14:03.729120","NORAD_CAT_ID":"47134","FILE":"3548882","REV_AT_EPOCH":"9740","EPHEMERIS_TYPE":"0","LAUNCH_DATE":"2020-11-25","ELEMENT_SET_NO":"999","MEAN_ELEMENT_THEORY":"SGP4","TIME_SYSTEM":"UTC","SITE":"AFETR","SEMIMAJOR_AXIS":"6925.372","GP_ID":"211135782","CLASSIFICATION_TYPE":"U","OBJECT_TYPE":"PAYLOAD","RCS_SIZE":"LARGE","APOAPSIS":"548.092","MEAN_MOTION_DOT":"0.00001864","DECAY_DATE":null,"ECCENTRICITY":"0.00012340","RA_OF_ASC_NODE":"332.7177","MEAN_MOTION":"15.06392198","COUNTRY_CODE":"US","MEAN_MOTION_DDOT":"0.0000000000000","PERIOD":"95.593","OBJECT_ID":"2020-088N","ARG_OF_PERICENTER":"96.1157","INCLINATION":"53.0561","REF_FRAME":"TEME","MEAN_ANOMALY":"263.9972","PERIAPSIS":"546.383","CENTER_NAME":"EARTH","BSTAR":"0.00014401000000","OBJECT_NAME":"STARLINK-1844","TLE_LINE1":"1 47134U 20088N   22239.67643205  .00001864  00000-0  14401-3 0  9990"},{"CENTER_NAME":"EARTH","OBJECT_NAME":"STARLINK-1845","TLE_LINE1":"1 47135U 20088P   22239.62941331  .00000898  00000-0  79164-4 0  9991","BSTAR":"0.00007916400000","COUNTRY_CODE":"US","MEAN_MOTION_DDOT":"0.0000000000000","OBJECT_ID":"2020-088P","PERIOD":"95.592","ARG_OF_PERICENTER":"83.1361","MEAN_ANOMALY":"276.9777","PERIAPSIS":"546.296","INCLINATION":"53.0554","REF_FRAME":"TEME","APOAPSIS":"548.117","MEAN_MOTION_DOT":"0.00000898","DECAY_DATE":null,"GP_ID":"211136002","CLASSIFICATION_TYPE":"U","RCS_SIZE":"LARGE","OBJECT_TYPE":"PAYLOAD","MEAN_MOTION":"15.06402243","ECCENTRICITY":"0.00013150","RA_OF_ASC_NODE":"322.9304","TLE_LINE2":"2 47135  53.0554 322.9304 0001315  83.1361 276.9777 15.06402243 97535","EPOCH":"2022-08-27T15:06:21.309984","MEAN_ELEMENT_THEORY":"SGP4","SITE":"AFETR","TIME_SYSTEM":"UTC","SEMIMAJOR_AXIS":"6925.342","NORAD_CAT_ID":"47135","FILE":"3548882","EPHEMERIS_TYPE":"0","REV_AT_EPOCH":"9753","LAUNCH_DATE":"2020-11-25","ELEMENT_SET_NO":"999"},{"CLASSIFICATION_TYPE":"U","GP_ID":"211103281","RCS_SIZE":"LARGE","OBJECT_TYPE":"PAYLOAD","MEAN_MOTION_DOT":"-0.00000019","APOAPSIS":"548.171","DECAY_DATE":null,"ECCENTRICITY":"0.00013610","RA_OF_ASC_NODE":"333.5230","MEAN_MOTION":"15.06395234","TLE_LINE2":"2 47136  53.0540 333.5230 0001361  99.8256 260.2886 15.06395234 97678","EPOCH":"2022-08-27T11:53:57.565824","NORAD_CAT_ID":"47136","FILE":"3548622","EPHEMERIS_TYPE":"0","REV_AT_EPOCH":"9767","LAUNCH_DATE":"2020-11-25","ELEMENT_SET_NO":"999","MEAN_ELEMENT_THEORY":"SGP4","SITE":"AFETR","SEMIMAJOR_AXIS":"6925.363","TIME_SYSTEM":"UTC","CENTER_NAME":"EARTH","BSTAR":"0.00001762100000","OBJECT_NAME":"STARLINK-1846","TLE_LINE1":"1 47136U 20088Q   22239.49580516 -.00000019  00000-0  17621-4 0  9997","COUNTRY_CODE":"US","MEAN_MOTION_DDOT":"0.0000000000000","PERIOD":"95.592","ARG_OF_PERICENTER":"99.8256","OBJECT_ID":"2020-088Q","INCLINATION":"53.0540","REF_FRAME":"TEME","PERIAPSIS":"546.286","MEAN_ANOMALY":"260.2886"},{"ELEMENT_SET_NO":"999","LAUNCH_DATE":"2020-11-25","EPHEMERIS_TYPE":"0","FILE":"3548622","REV_AT_EPOCH":"9781","NORAD_CAT_ID":"47137","SEMIMAJOR_AXIS":"6925.347","SITE":"AFETR","TIME_SYSTEM":"UTC","MEAN_ELEMENT_THEORY":"SGP4","EPOCH":"2022-08-27T11:28:44.534208","TLE_LINE2":"2 47137  53.0561 323.6063 0001380  77.1989 282.9155 15.06400601 97810","RA_OF_ASC_NODE":"323.6063","ECCENTRICITY":"0.00013800","MEAN_MOTION":"15.06400601","OBJECT_TYPE":"PAYLOAD","RCS_SIZE":"LARGE","GP_ID":"211104029","CLASSIFICATION_TYPE":"U","DECAY_DATE":null,"MEAN_MOTION_DOT":"0.00000235","APOAPSIS":"548.167","REF_FRAME":"TEME","INCLINATION":"53.0561","PERIAPSIS":"546.256","MEAN_ANOMALY":"282.9155","PERIOD":"95.592","OBJECT_ID":"2020-088R","ARG_OF_PERICENTER":"77.1989","COUNTRY_CODE":"US","MEAN_MOTION_DDOT":"0.0000000000000","BSTAR":"0.00003468100000","TLE_LINE1":"1 47137U 20088R   22239.47829322  .00000235  00000-0  34681-4 0  9991","OBJECT_NAME":"STARLINK-1849","CENTER_NAME":"EARTH"},{"MEAN_MOTION":"15.06404753","ECCENTRICITY":"0.00013720","RA_OF_ASC_NODE":"328.0442","APOAPSIS":"548.149","MEAN_MOTION_DOT":"0.00002155","DECAY_DATE":null,"CLASSIFICATION_TYPE":"U","GP_ID":"211135289","RCS_SIZE":"LARGE","OBJECT_TYPE":"PAYLOAD","MEAN_ELEMENT_THEORY":"SGP4","TIME_SYSTEM":"UTC","SITE":"AFETR","SEMIMAJOR_AXIS":"6925.334","FILE":"3548882","EPHEMERIS_TYPE":"0","REV_AT_EPOCH":"9747","NORAD_CAT_ID":"47138","ELEMENT_SET_NO":"999","LAUNCH_DATE":"2020-11-25","EPOCH":"2022-08-27T16:12:05.704128","TLE_LINE2":"2 47138  53.0564 328.0442 0001372  74.8096 285.3044 15.06404753 97476","TLE_LINE1":"1 47138U 20088S   22239.67506602  .00002155  00000-0  16347-3 0  9998","OBJECT_NAME":"STARLINK-1850","BSTAR":"0.00016347000000","CENTER_NAME":"EARTH","PERIAPSIS":"546.249","MEAN_ANOMALY":"285.3044","INCLINATION":"53.0564","REF_FRAME":"TEME","MEAN_MOTION_DDOT":"0.0000000000000","COUNTRY_CODE":"US","OBJECT_ID":"2020-088S","PERIOD":"95.592","ARG_OF_PERICENTER":"74.8096"},{"BSTAR":"0.00014103000000","TLE_LINE1":"1 47139U 20088T   22239.65939138  .00001820  00000-0  14103-3 0  9997","OBJECT_NAME":"STARLINK-1852","CENTER_NAME":"EARTH","REF_FRAME":"TEME","INCLINATION":"53.0553","PERIAPSIS":"546.327","MEAN_ANOMALY":"267.7393","ARG_OF_PERICENTER":"92.3743","PERIOD":"95.592","OBJECT_ID":"2020-088T","MEAN_MOTION_DDOT":"0.0000000000000","COUNTRY_CODE":"US","RA_OF_ASC_NODE":"337.9872","ECCENTRICITY":"0.00012820","MEAN_MOTION":"15.06399605","OBJECT_TYPE":"PAYLOAD","RCS_SIZE":"LARGE","CLASSIFICATION_TYPE":"U","GP_ID":"211135509","DECAY_DATE":null,"MEAN_MOTION_DOT":"0.00001820","APOAPSIS":"548.103","ELEMENT_SET_NO":"999","LAUNCH_DATE":"2020-11-25","REV_AT_EPOCH":"9732","FILE":"3548882","EPHEMERIS_TYPE":"0","NORAD_CAT_ID":"47139","SITE":"AFETR","TIME_SYSTEM":"UTC","SEMIMAJOR_AXIS":"6925.350","MEAN_ELEMENT_THEORY":"SGP4","EPOCH":"2022-08-27T15:49:31.415232","TLE_LINE2":"2 47139  53.0553 337.9872 0001282  92.3743 267.7393 15.06399605 97329"}];
